STARLINK-11369 [DTC]    
1 62095U 24220H   25321.45808471  .00227172  00000+0  17198-2 0  9990
2 62095  43.0020 359.4277 0002730 265.6843  94.3713 15.70923593 57403
STARLINK-11303 [DTC]    
1 62096U 24220J   25321.38920457  .00775904  00000+0  55130-2 0  9991
2 62096  43.0005 359.7690 0000901 258.4618 101.6148 15.70799732 57395
STARLINK-11367 [DTC]    
1 62097U 24220K   25321.25671977  .00279870  00000+0  21097-2 0  9994
2 62097  42.9991   0.4914 0001248 192.1834 167.9003 15.70865216 57370
STARLINK-11386 [DTC]    
1 62098U 24220L   25321.25141193  .00314768  00000+0  23641-2 0  9990
2 62098  43.0002   0.4495 0000858 250.5400 109.5375 15.70847135 57277
STARLINK-11380 [DTC]    
1 62099U 24220M   25321.50043697  .00284121  00000+0  21357-2 0  9990
2 62099  42.9997 358.8733 0001257 266.8441  93.2283 15.70919947 57316
STARLINK-33566          
1 62100U 24220N   25321.43911183  .00050615  00000+0  18366-2 0  9994
2 62100  43.0017 104.7656 0001614 271.2385  88.8282 15.27574631 56193
STARLINK-33545          
1 62101U 24220P   25321.48344002  .00032102  00000+0  11687-2 0  9990
2 62101  42.9977 118.9722 0001239 241.3153 118.7574 15.27644537 55865
STARLINK-33562          
1 62102U 24220Q   25321.49500378  .00042507  00000+0  15451-2 0  9995
2 62102  42.9994 119.0624 0001171 271.8928  88.1789 15.27585372 55860
STARLINK-33554          
1 62103U 24220R   25321.47957116  .00002316  00000+0  93684-4 0  9990
2 62103  42.9987 118.9442 0001123 255.3584 104.7143 15.27574010 55799
STARLINK-33555          
1 62104U 24220S   25321.44758887  .00042863  00000+0  15554-2 0  9991
2 62104  43.0011 119.5558 0001968 277.3035  82.7593 15.27636403 55998
STARLINK-33559          
1 62107U 24220V   25321.44374693  .00053751  00000+0  19451-2 0  9991
2 62107  42.9999 119.5277 0001458 231.4706 128.6015 15.27638955 56020
STARLINK-33553          
1 62108U 24220W   25321.50142758  .00039425  00000+0  14348-2 0  9996
2 62108  43.0034 119.1071 0001823 271.8961  88.1681 15.27574163 56038
STARLINK-33556          
1 62109U 24220X   25321.48729471  .00042675  00000+0  15515-2 0  9995
2 62109  42.9976 119.0058 0001426 281.3629  78.7062 15.27577366 56050
STARLINK-33551          
1 62110U 24220Y   25321.50528744  .00042230  00000+0  15342-2 0  9995
2 62110  43.0033 119.1323 0002312 270.0996  89.9590 15.27603275 56038
STARLINK-32311          
1 62114U 24222A   25321.49637483  .00064053  00000+0  23149-2 0  9991
2 62114  43.0040  34.8136 0001167 265.4804  94.5914 15.27610911 55922
STARLINK-32470          
1 62115U 24222B   25320.26122421  .00040205  00000+0  14600-2 0  9992
2 62115  42.9960  56.5921 0000771  89.3128 270.7812 15.27638654 55555
