[{"OBJECT_NAME":"STARLINK-11369 [DTC]","OBJECT_ID":"2024-220H","EPOCH":"2025-11-17T10:59:38.518944","MEAN_MOTION":15.70923593,"ECCENTRICITY":0.000273,"INCLINATION":43.002,"RA_OF_ASC_NODE":359.4277,"ARG_OF_PERICENTER":265.6843,"MEAN_ANOMALY":94.3713,"EPHEMERIS_TYPE":0,"CLASSIFICATION_TYPE":"U","NORAD_CAT_ID":62095,"ELEMENT_SET_NO":999,"REV_AT_EPOCH":5740,"BSTAR":0.0017198,"MEAN_MOTION_DOT":0.00227172,"MEAN_MOTION_DDOT":0},{"OBJECT_NAME":"STARLINK-11303 [DTC]","OBJECT_ID":"2024-220J","EPOCH":"2025-11-17T09:20:27.274848","MEAN_MOTION":15.70799732,"ECCENTRICITY":9.01e-5,"INCLINATION":43.0005,"RA_OF_ASC_NODE":359.769,"ARG_OF_PERICENTER":258.4618,"MEAN_ANOMALY":101.6148,"EPHEMERIS_TYPE":0,"CLASSIFICATION_TYPE":"U","NORAD_CAT_ID":62096,"ELEMENT_SET_NO":999,"REV_AT_EPOCH":5739,"BSTAR":0.005513,"MEAN_MOTION_DOT":0.00775904,"MEAN_MOTION_DDOT":0},{"OBJECT_NAME":"STARLINK-11367 [DTC]","OBJECT_ID":"2024-220K","EPOCH":"2025-11-17T06:09:40.588128","MEAN_MOTION":15.70865216,"ECCENTRICITY":0.00012487,"INCLINATION":42.9991,"RA_OF_ASC_NODE":0.4914,"ARG_OF_PERICENTER":192.1834,"MEAN_ANOMALY":167.9003,"EPHEMERIS_TYPE":0,"CLASSIFICATION_TYPE":"U","NORAD_CAT_ID":62097,"ELEMENT_SET_NO":999,"REV_AT_EPOCH":5737,"BSTAR":0.0021097216,"MEAN_MOTION_DOT":0.0027987,"MEAN_MOTION_DDOT":0},{"OBJECT_NAME":"STARLINK-11386 [DTC]","OBJECT_ID":"2024-220L","EPOCH":"2025-11-17T06:02:01.990752","MEAN_MOTION":15.70847135,"ECCENTRICITY":8.585e-5,"INCLINATION":43.0002,"RA_OF_ASC_NODE":0.4495,"ARG_OF_PERICENTER":250.54,"MEAN_ANOMALY":109.5375,"EPHEMERIS_TYPE":0,"CLASSIFICATION_TYPE":"U","NORAD_CAT_ID":62098,"ELEMENT_SET_NO":999,"REV_AT_EPOCH":5727,"BSTAR":0.0023640515,"MEAN_MOTION_DOT":0.00314768,"MEAN_MOTION_DDOT":0},{"OBJECT_NAME":"STARLINK-11380 [DTC]","OBJECT_ID":"2024-220M","EPOCH":"2025-11-17T12:00:37.754208","MEAN_MOTION":15.70919947,"ECCENTRICITY":0.0001257,"INCLINATION":42.9997,"RA_OF_ASC_NODE":358.8733,"ARG_OF_PERICENTER":266.8441,"MEAN_ANOMALY":93.2283,"EPHEMERIS_TYPE":0,"CLASSIFICATION_TYPE":"U","NORAD_CAT_ID":62099,"ELEMENT_SET_NO":999,"REV_AT_EPOCH":5731,"BSTAR":0.0021357,"MEAN_MOTION_DOT":0.00284121,"MEAN_MOTION_DDOT":0},{"OBJECT_NAME":"STARLINK-33566","OBJECT_ID":"2024-220N","EPOCH":"2025-11-17T10:32:19.262112","MEAN_MOTION":15.27574631,"ECCENTRICITY":0.0001614,"INCLINATION":43.0017,"RA_OF_ASC_NODE":104.7656,"ARG_OF_PERICENTER":271.2385,"MEAN_ANOMALY":88.8282,"EPHEMERIS_TYPE":0,"CLASSIFICATION_TYPE":"U","NORAD_CAT_ID":62100,"ELEMENT_SET_NO":999,"REV_AT_EPOCH":5619,"BSTAR":0.0018366,"MEAN_MOTION_DOT":0.00050615,"MEAN_MOTION_DDOT":0},{"OBJECT_NAME":"STARLINK-33545","OBJECT_ID":"2024-220P","EPOCH":"2025-11-17T11:36:09.217728","MEAN_MOTION":15.27644537,"ECCENTRICITY":0.0001239,"INCLINATION":42.9977,"RA_OF_ASC_NODE":118.9722,"ARG_OF_PERICENTER":241.3153,"MEAN_ANOMALY":118.7574,"EPHEMERIS_TYPE":0,"CLASSIFICATION_TYPE":"U","NORAD_CAT_ID":62101,"ELEMENT_SET_NO":999,"REV_AT_EPOCH":5586,"BSTAR":0.0011687,"MEAN_MOTION_DOT":0.00032102,"MEAN_MOTION_DDOT":0},{"OBJECT_NAME":"STARLINK-33562","OBJECT_ID":"2024-220Q","EPOCH":"2025-11-17T11:52:48.326592","MEAN_MOTION":15.27585372,"ECCENTRICITY":0.0001171,"INCLINATION":42.9994,"RA_OF_ASC_NODE":119.0624,"ARG_OF_PERICENTER":271.8928,"MEAN_ANOMALY":88.1789,"EPHEMERIS_TYPE":0,"CLASSIFICATION_TYPE":"U","NORAD_CAT_ID":62102,"ELEMENT_SET_NO":999,"REV_AT_EPOCH":5586,"BSTAR":0.0015451,"MEAN_MOTION_DOT":0.00042507,"MEAN_MOTION_DDOT":0},{"OBJECT_NAME":"STARLINK-33554","OBJECT_ID":"2024-220R","EPOCH":"2025-11-17T11:30:34.948224","MEAN_MOTION":15.2757401,"ECCENTRICITY":0.0001123,"INCLINATION":42.9987,"RA_OF_ASC_NODE":118.9442,"ARG_OF_PERICENTER":255.3584,"MEAN_ANOMALY":104.7143,"EPHEMERIS_TYPE":0,"CLASSIFICATION_TYPE":"U","NORAD_CAT_ID":62103,"ELEMENT_SET_NO":999,"REV_AT_EPOCH":5579,"BSTAR":9.3684e-5,"MEAN_MOTION_DOT":2.316e-5,"MEAN_MOTION_DDOT":0},{"OBJECT_NAME":"STARLINK-33555","OBJECT_ID":"2024-220S","EPOCH":"2025-11-17T10:44:31.678368","MEAN_MOTION":15.27636403,"ECCENTRICITY":0.0001968,"INCLINATION":43.0011,"RA_OF_ASC_NODE":119.5558,"ARG_OF_PERICENTER":277.3035,"MEAN_ANOMALY":82.7593,"EPHEMERIS_TYPE":0,"CLASSIFICATION_TYPE":"U","NORAD_CAT_ID":62104,"ELEMENT_SET_NO":999,"REV_AT_EPOCH":5599,"BSTAR":0.0015554,"MEAN_MOTION_DOT":0.00042863,"MEAN_MOTION_DDOT":0},{"OBJECT_NAME":"STARLINK-33559","OBJECT_ID":"2024-220V","EPOCH":"2025-11-17T10:38:59.734752","MEAN_MOTION":15.27638955,"ECCENTRICITY":0.0001458,"INCLINATION":42.9999,"RA_OF_ASC_NODE":119.5277,"ARG_OF_PERICENTER":231.4706,"MEAN_ANOMALY":128.6015,"EPHEMERIS_TYPE":0,"CLASSIFICATION_TYPE":"U","NORAD_CAT_ID":62107,"ELEMENT_SET_NO":999,"REV_AT_EPOCH":5602,"BSTAR":0.0019451,"MEAN_MOTION_DOT":0.00053751,"MEAN_MOTION_DDOT":0},{"OBJECT_NAME":"STARLINK-33553","OBJECT_ID":"2024-220W","EPOCH":"2025-11-17T12:02:03.342912","MEAN_MOTION":15.27574163,"ECCENTRICITY":0.0001823,"INCLINATION":43.0034,"RA_OF_ASC_NODE":119.1071,"ARG_OF_PERICENTER":271.8961,"MEAN_ANOMALY":88.1681,"EPHEMERIS_TYPE":0,"CLASSIFICATION_TYPE":"U","NORAD_CAT_ID":62108,"ELEMENT_SET_NO":999,"REV_AT_EPOCH":5603,"BSTAR":0.0014348,"MEAN_MOTION_DOT":0.00039425,"MEAN_MOTION_DDOT":0},{"OBJECT_NAME":"STARLINK-33556","OBJECT_ID":"2024-220X","EPOCH":"2025-11-17T11:41:42.262944","MEAN_MOTION":15.27577366,"ECCENTRICITY":0.0001426,"INCLINATION":42.9976,"RA_OF_ASC_NODE":119.0058,"ARG_OF_PERICENTER":281.3629,"MEAN_ANOMALY":78.7062,"EPHEMERIS_TYPE":0,"CLASSIFICATION_TYPE":"U","NORAD_CAT_ID":62109,"ELEMENT_SET_NO":999,"REV_AT_EPOCH":5605,"BSTAR":0.0015515,"MEAN_MOTION_DOT":0.00042675,"MEAN_MOTION_DDOT":0},{"OBJECT_NAME":"STARLINK-33551","OBJECT_ID":"2024-220Y","EPOCH":"2025-11-17T12:07:36.834816","MEAN_MOTION":15.27603275,"ECCENTRICITY":0.0002312,"INCLINATION":43.0033,"RA_OF_ASC_NODE":119.1323,"ARG_OF_PERICENTER":270.0996,"MEAN_ANOMALY":89.959,"EPHEMERIS_TYPE":0,"CLASSIFICATION_TYPE":"U","NORAD_CAT_ID":62110,"ELEMENT_SET_NO":999,"REV_AT_EPOCH":5603,"BSTAR":0.0015342,"MEAN_MOTION_DOT":0.0004223,"MEAN_MOTION_DDOT":0},{"OBJECT_NAME":"STARLINK-32311","OBJECT_ID":"2024-222A","EPOCH":"2025-11-17T11:54:46.785312","MEAN_MOTION":15.27610911,"ECCENTRICITY":0.0001167,"INCLINATION":43.004,"RA_OF_ASC_NODE":34.8136,"ARG_OF_PERICENTER":265.4804,"MEAN_ANOMALY":94.5914,"EPHEMERIS_TYPE":0,"CLASSIFICATION_TYPE":"U","NORAD_CAT_ID":62114,"ELEMENT_SET_NO":999,"REV_AT_EPOCH":5592,"BSTAR":0.0023149,"MEAN_MOTION_DOT":0.00064053,"MEAN_MOTION_DDOT":0},{"OBJECT_NAME":"STARLINK-32470","OBJECT_ID":"2024-222B","EPOCH":"2025-11-16T06:16:09.771744","MEAN_MOTION":15.27638654,"ECCENTRICITY":7.712e-5,"INCLINATION":42.996,"RA_OF_ASC_NODE":56.5921,"ARG_OF_PERICENTER":89.3128,"MEAN_ANOMALY":270.7812,"EPHEMERIS_TYPE":0,"CLASSIFICATION_TYPE":"U","NORAD_CAT_ID":62115,"ELEMENT_SET_NO":999,"REV_AT_EPOCH":5555,"BSTAR":0.0014599825,"MEAN_MOTION_DOT":0.00040205,"MEAN_MOTION_DDOT":0}]
